#dP2025  2  7 18  0  0.00000000      96 __u+U IGS20 EXT  IAC
## 2352 496800.00000000   900.00000000 60713 0.7500000000000
+   52   G01G03G04G05G06G07G08G09G10G11G12G13G14G15G16G17G18
+        G19G20G21G22G23G24G25G26G27G28G29G30G31G32R01R02R03
+        R04R05R07R08R09R11R12R14R15R16R17R18R19R20R21R22R24
+        R26  0  0  0  0  0  0  0  0  0  0  0  0  0  0  0  0
+          0  0  0  0  0  0  0  0  0  0  0  0  0  0  0  0  0
++         6  7  6  7  8  8  8  7  7  7  7  8  6  8  8  7  7
++         9  8  6  6  7  7  7  8  7  8  7  8  9  7  7  8  8
++         9  8  7  8  6  8  9  8  8  7  9  9  7  8  7  9  7
++         9  0  0  0  0  0  0  0  0  0  0  0  0  0  0  0  0
++         0  0  0  0  0  0  0  0  0  0  0  0  0  0  0  0  0
%c M  cc GPS ccc cccc cccc cccc cccc ccccc ccccc ccccc ccccc
%c cc cc ccc ccc cccc cccc cccc cccc ccccc ccccc ccccc ccccc
%f  0.0000000  0.000000000  0.00000000000  0.000000000000000
%f  0.0000000  0.000000000  0.00000000000  0.000000000000000
%i    0    0    0    0      0      0      0      0         0
%i    0    0    0    0      0      0      0      0         0
/* IAC                                ULTRA-RAPID PREDICTION
/* S/V CLOCKS ARE ALIGNED TO GNSS TIME                      
/* G:C1WC2W R:C1PC2P E:C1XC5X C:C2IC6I J:C1CC2S             
/* PCV:IGS20_2350 OL/AL:FES2004  NONE     YN ORB:CoN CLK:CoN
*  2025 02 08 10  0  0.00000000
PG01 -17572.552319  -7098.454081  18619.029279    107.294298
PG03 -17379.665508   3793.093968  19516.233797    660.197003
PG04 -26606.380601   -492.022475  -1317.672989    524.130066
PG05  11091.108677  10644.611585 -21826.672194   -201.361135
PG06   4214.042080  23660.385428  11235.953575   -173.735573
PG07 -12522.899743   8647.737948 -21206.479496    -13.637744
PG08 -24184.252412  -6414.991361  -9710.994960    476.434255
PG09 -23449.249798   7364.169575 -10245.374522    559.422211
PG10   9266.183082 -23841.169165   6713.519087   -310.060484
PG11  11789.820886  23835.055160     74.057364   -748.370470
PG12  17279.696235   -481.837166  19863.134639   -569.043740
PG13  17280.050269  13444.723380 -15441.712078    695.865891
PG14 -12147.467481  23295.323265   2902.259405    594.822592
PG15  24720.623981   3640.544071  -9729.425335    261.057381
PG16  -6063.678154 -16090.487184 -20485.263606    -58.079698
PG17 -11388.658156  13312.645865  20426.078692    435.830256
PG18  10795.359084 -10947.179473 -21599.048965   -654.185814
PG19    481.734345  15193.206875  21666.248708    595.633095
PG20   3710.027432  21226.672090 -15519.049591    366.456949
PG21 -19824.611800 -14826.798055  11384.305960    101.841973
PG22  -7587.797840  23356.159964  10882.123852    -96.096718
PG23  16675.371466 -18975.227026  -7764.554159    419.584496
PG24  19886.988007  10350.766686  14066.683476   -454.569092
PG25  18424.665509 -13568.881000  12896.255433    495.365115
PG26    215.404926 -22969.024034 -13185.912329    -82.175541
PG27 -15208.694559 -12825.687445 -18121.952969    -31.835534
PG28  -3371.424074 -23040.858280  12754.015380   -554.813004
PG29  24064.884212  -4913.576373 -10315.567287   -539.666196
PG30  -3826.726955  19430.073799 -17414.755504   -220.925687
PG31  -9163.340981 -24261.388133   4511.677437   -216.001010
PG32   4690.199044 -14979.455495  21639.256864   -525.906100
PR01  22798.015953 -10718.091030   4054.888100    114.015343
PR02  11434.875608 -12979.757298  18767.459883    -37.618870
PR03  -7386.078312  -8723.844479  22861.377510    116.444517
PR04 -21113.149734     75.399563  14360.096364    276.274359
PR05 -23901.431292   8760.284139  -1800.872070    145.012424
PR07   7546.256768   8611.965939 -22742.098844    100.391248
PR08  21270.544309   -437.391974 -13978.591614     -6.193954
PR09  -5505.581392  24628.376148  -3382.931750    236.790575
PR11   9270.697797   8253.863994  22286.597194     -7.419257
PR12  11552.307874 -12965.528122  18695.627096     50.549667
PR14  -2726.169067 -21633.848381 -13248.886134     27.717695
PR15  -9892.508695  -6388.752546 -22615.979476     71.386891
PR16 -11406.739460  12873.372744 -18819.857841     33.143426
PR17 -15293.690155 -18554.902665  -8451.732048    164.340005
PR18 -20259.340560 -13368.671567   7949.081918    185.991257
PR19 -16103.463308  -3328.984539  19503.275568    -39.915348
PR20    -66.252724  13426.129493  21689.448072   -125.596050
PR21  14307.605146  18736.400299   9771.717611   -175.021087
PR22  20045.591781  12886.052531  -9050.779376    -59.682878
PR24   -787.351798 -14035.904428 -21262.913735    -91.606835
PR26  20138.673168    635.624643 -15631.305161   -130.977581
*  2025 02 08 10 15  0.00000000
PG01 -18346.652010  -8987.350600  16985.444119    107.316876
PG03 -16302.750922   1723.784168  20702.490046    660.202424
PG04 -26591.457764   -717.182887   1541.887388    524.135127
PG05   9973.593747  12793.474449 -21192.220070   -201.362063
PG06   3379.777735  22509.015781  13651.183768   -173.758236
PG07 -13845.509810   6471.320100 -21200.618683    -13.638046
PG08 -22979.107892  -6696.076231 -12134.642794    476.440427
PG09 -24468.239427   7180.596287  -7645.058056    559.434800
PG10   9721.405303 -24253.091987   3870.637933   -310.074234
PG11  11503.057757  23799.721238   2930.054092   -748.368580
PG12  16054.701685   1569.183873  20802.681954   -569.045618
PG13  15452.888181  13337.386632 -17359.065867    695.866795
PG14 -12509.998815  23276.977231     73.400102    594.828740
PG15  23601.273872   4097.853752 -12144.877639    261.061373
PG16  -4722.047628 -17860.030479 -19277.004037    -58.071376
PG17 -13562.956794  13129.142603  19171.022560    435.813453
PG18  12066.018988  -8799.520464 -21925.411584   -654.183909
PG19  -2016.982839  14960.539608  21700.010357    595.637007
PG20   2992.978467  22742.121056 -13405.642557    366.456697
PG21 -20351.856914 -15781.586304   8907.788182    101.841735
PG22  -8343.308769  24103.300126   8335.963446    -96.098138
PG23  16359.603821 -17955.235776 -10416.563822    419.591081
PG24  20612.878368  11737.106615  11868.810082   -454.564782
PG25  17861.547711 -11981.043610  15047.627914    495.364491
PG26   1052.325795 -24095.550706 -10866.519528    -82.190402
PG27 -13128.151441 -12985.868273 -19562.589285    -31.834983
PG28  -2349.545655 -21810.337777  14955.673274   -554.820849
PG29  25071.978137  -4648.516228  -7707.696910   -539.662920
PG30  -5083.188290  17710.183466 -18878.081650   -220.917809
PG31  -8556.656647 -23789.594696   7266.480587   -216.000181
PG32   7080.781256 -14978.126994  20954.300920   -525.899177
PR01  23017.884968 -10976.107680    859.317422    114.016480
PR02  13441.776744 -13843.326980  16695.104739    -37.618474
PR03  -4740.150104  -9719.419460  23155.324153    116.445152
PR04 -19269.584168   -458.790099  16750.362887    276.275884
PR05 -23860.307181   8944.981891   1427.554311    145.012890
PR07   4887.927545   9611.243885 -23069.734922    100.391874
PR08  19461.947511    120.925841 -16401.743930     -6.193866
PR09  -5350.660572  24030.244734  -6496.674299    236.792800
PR11   8923.836594  10917.610079  21257.080845     -7.422377
PR12  11120.703555 -10596.399391  20377.142529     50.550130
PR14  -2617.561724 -23099.212775 -10518.211221     27.717745
PR15  -9507.712616  -9106.595194 -21837.572036     71.386407
PR16 -10969.339275  10484.264853 -20490.985828     33.143733
PR17 -14449.698072 -17649.286607 -11371.721011    164.342770
PR18 -20988.166386 -13724.442940   4841.127262    185.993044
PR19 -17893.966146  -4761.170538  17547.556410    -39.916606
PR20  -2057.851973  11545.072510  22657.346775   -125.596597
PR21  13359.504332  17717.078055  12603.441969   -175.024081
PR22  20837.217062  13400.018505  -6016.502723    -59.684290
PR24   1271.081994 -12300.045545 -22289.607229    -91.608331
PR26  18166.238469   1276.797725 -17846.435177   -130.977228
EOF
